{"type":"FeatureCollection","features":[{"type":"Feature","geometry":{"type":"Point","coordinates":[5.308754,52.061326]},"properties":{"feature_number":1}},{"type":"Feature","geometry":{"type":"Point","coordinates":[5.309382,52.060128]},"properties":{"feature_number":2}},{"type":"Feature","geometry":{"type":"Point","coordinates":[5.308753,52.058533]},"properties":{"feature_number":3}},{"type":"Feature","geometry":{"type":"Point","coordinates":[5.308076,52.057924]},"properties":{"feature_number":4}},{"type":"Feature","geometry":{"type":"Point","coordinates":[5.310422,52.057389]},"properties":{"feature_number":5}},{"type":"Feature","geometry":{"type":"Point","coordinates":[5.311646,52.058182]},"properties":{"feature_number":6}},{"type":"Feature","geometry":{"type":"Point","coordinates":[5.312755,52.059222]},"properties":{"feature_number":7}},{"type":"Feature","geometry":{"type":"Point","coordinates":[5.313934,52.059937]},"properties":{"feature_number":8}},{"type":"Feature","geometry":{"type":"Point","coordinates":[5.313753,52.061072]},"properties":{"feature_number":9}},{"type":"Feature","geometry":{"type":"Point","coordinates":[5.311324,52.061573]},"properties":{"feature_number":10}},{"type":"Feature","geometry":{"type":"Point","coordinates":[5.310719,52.060046]},"properties":{"feature_number":11}}]}