{"type":"FeatureCollection","features":[{"type":"Feature","geometry":{"type":"Point","coordinates":[5.308754,52.061326]},"properties":{"feature_number":1}},{"type":"Feature","geometry":{"type":"Point","coordinates":[5.309411,52.060155]},"properties":{"feature_number":2}},{"type":"Feature","geometry":{"type":"Point","coordinates":[5.308571,52.058699]},"properties":{"feature_number":3}},{"type":"Feature","geometry":{"type":"Point","coordinates":[5.309275,52.057724]},"properties":{"feature_number":4}},{"type":"Feature","geometry":{"type":"Point","coordinates":[5.311006,52.05744]},"properties":{"feature_number":5}},{"type":"Feature","geometry":{"type":"Point","coordinates":[5.311735,52.05847]},"properties":{"feature_number":6}},{"type":"Feature","geometry":{"type":"Point","coordinates":[5.312755,52.059222]},"properties":{"feature_number":7}},{"type":"Feature","geometry":{"type":"Point","coordinates":[5.31371,52.059936]},"properties":{"feature_number":8}},{"type":"Feature","geometry":{"type":"Point","coordinates":[5.313753,52.061072]},"properties":{"feature_number":9}},{"type":"Feature","geometry":{"type":"Point","coordinates":[5.311324,52.061573]},"properties":{"feature_number":10}},{"type":"Feature","geometry":{"type":"Point","coordinates":[5.310719,52.060046]},"properties":{"feature_number":11}}]}