{"type":"FeatureCollection","features":[{"type":"Feature","geometry":{"type":"Point","coordinates":[5.309244,52.061184]},"properties":{}},{"type":"Feature","geometry":{"type":"Point","coordinates":[5.308415,52.060472]},"properties":{}},{"type":"Feature","geometry":{"type":"Point","coordinates":[5.309494,52.059558]},"properties":{}},{"type":"Feature","geometry":{"type":"Point","coordinates":[5.308218,52.059628]},"properties":{}},{"type":"Feature","geometry":{"type":"Point","coordinates":[5.309836,52.05896]},"properties":{}},{"type":"Feature","geometry":{"type":"Point","coordinates":[5.308283,52.058093]},"properties":{}},{"type":"Feature","geometry":{"type":"Point","coordinates":[5.309464,52.057691]},"properties":{}},{"type":"Feature","geometry":{"type":"Point","coordinates":[5.311981,52.057605]},"properties":{},"id":8},{"type":"Feature","geometry":{"type":"Point","coordinates":[5.310556,52.057297]},"properties":{}},{"type":"Feature","geometry":{"type":"Point","coordinates":[5.313365,52.058567]},"properties":{}},{"type":"Feature","geometry":{"type":"Point","coordinates":[5.312537,52.059251]},"properties":{}},{"type":"Feature","geometry":{"type":"Point","coordinates":[5.313062,52.060213]},"properties":{}},{"type":"Feature","geometry":{"type":"Point","coordinates":[5.31229,52.059811]},"properties":{}},{"type":"Feature","geometry":{"type":"Point","coordinates":[5.314427,52.060012]},"properties":{}},{"type":"Feature","geometry":{"type":"Point","coordinates":[5.313539,52.060955]},"properties":{}},{"type":"Feature","geometry":{"type":"Point","coordinates":[5.31256,52.061448]},"properties":{}},{"type":"Feature","geometry":{"type":"Point","coordinates":[5.311002,52.061657]},"properties":{}},{"type":"Feature","geometry":{"type":"Point","coordinates":[5.311259,52.061016]},"properties":{}},{"type":"Feature","geometry":{"type":"Point","coordinates":[5.311492,52.058935]},"properties":{}},{"type":"Feature","geometry":{"type":"Point","coordinates":[5.311205,52.06032]},"properties":{}}]}