{"type":"FeatureCollection","features":[{"type":"Feature","geometry":{"type":"Point","coordinates":[5.309194,52.061231]},"properties":{}},{"type":"Feature","geometry":{"type":"Point","coordinates":[5.308812,52.060724]},"properties":{}},{"type":"Feature","geometry":{"type":"Point","coordinates":[5.31,52.060293]},"properties":{}},{"type":"Feature","geometry":{"type":"Point","coordinates":[5.308248,52.059831]},"properties":{}},{"type":"Feature","geometry":{"type":"Point","coordinates":[5.309544,52.058968]},"properties":{}},{"type":"Feature","geometry":{"type":"Point","coordinates":[5.308596,52.05818]},"properties":{}},{"type":"Feature","geometry":{"type":"Point","coordinates":[5.309381,52.057573]},"properties":{}},{"type":"Feature","geometry":{"type":"Point","coordinates":[5.311622,52.057634]},"properties":{},"id":8},{"type":"Feature","geometry":{"type":"Point","coordinates":[5.310838,52.058459]},"properties":{}},{"type":"Feature","geometry":{"type":"Point","coordinates":[5.312938,52.058424]},"properties":{}},{"type":"Feature","geometry":{"type":"Point","coordinates":[5.312694,52.059307]},"properties":{}},{"type":"Feature","geometry":{"type":"Point","coordinates":[5.313062,52.060213]},"properties":{}},{"type":"Feature","geometry":{"type":"Point","coordinates":[5.311998,52.059896]},"properties":{}},{"type":"Feature","geometry":{"type":"Point","coordinates":[5.314427,52.060012]},"properties":{}},{"type":"Feature","geometry":{"type":"Point","coordinates":[5.313539,52.060955]},"properties":{}},{"type":"Feature","geometry":{"type":"Point","coordinates":[5.312552,52.061528]},"properties":{}},{"type":"Feature","geometry":{"type":"Point","coordinates":[5.311002,52.061657]},"properties":{}},{"type":"Feature","geometry":{"type":"Point","coordinates":[5.311182,52.061213]},"properties":{}},{"type":"Feature","geometry":{"type":"Point","coordinates":[5.311507,52.059097]},"properties":{}},{"type":"Feature","geometry":{"type":"Point","coordinates":[5.311213,52.060545]},"properties":{}}]}