{"type":"FeatureCollection","features":[{"type":"Feature","properties":{},"geometry":{"coordinates":[5.309194166068352,52.0612307155715],"type":"Point"}},{"type":"Feature","properties":{},"geometry":{"coordinates":[5.308812190609558,52.06072449479595],"type":"Point"}},{"type":"Feature","properties":{},"geometry":{"coordinates":[5.309999894483383,52.060292568468384],"type":"Point"}},{"type":"Feature","properties":{},"geometry":{"coordinates":[5.308138891798109,52.059596974252855],"type":"Point"}},{"type":"Feature","properties":{},"geometry":{"coordinates":[5.3093279284794335,52.058978629972756],"type":"Point"}},{"type":"Feature","properties":{},"geometry":{"coordinates":[5.308563837109006,52.0580343364426],"type":"Point"}},{"type":"Feature","properties":{},"geometry":{"coordinates":[5.309364740619486,52.05727375877103],"type":"Point"}},{"type":"Feature","properties":{},"geometry":{"coordinates":[5.31027822093921,52.057762858354835],"type":"Point"},"id":8},{"type":"Feature","properties":{},"geometry":{"coordinates":[5.310837854093961,52.05845944697691],"type":"Point"}},{"type":"Feature","properties":{},"geometry":{"coordinates":[5.3126259554260855,52.0584930172505],"type":"Point"}},{"type":"Feature","properties":{},"geometry":{"coordinates":[5.312694203568412,52.05930708865941],"type":"Point"}},{"type":"Feature","properties":{},"geometry":{"coordinates":[5.313061538118433,52.06021330670589],"type":"Point"}},{"type":"Feature","properties":{},"geometry":{"coordinates":[5.312024166353467,52.05974333868059],"type":"Point"}},{"type":"Feature","properties":{},"geometry":{"coordinates":[5.314426500967215,52.060011892443356],"type":"Point"}},{"type":"Feature","properties":{},"geometry":{"coordinates":[5.314195501748799,52.06087692974009],"type":"Point"}},{"type":"Feature","properties":{},"geometry":{"coordinates":[5.312461998930246,52.06148115810129],"type":"Point"}},{"type":"Feature","properties":{},"geometry":{"coordinates":[5.311001500772477,52.0616573879756],"type":"Point"}},{"type":"Feature","properties":{},"geometry":{"coordinates":[5.311124347429427,52.06127974769771],"type":"Point"}},{"type":"Feature","properties":{},"geometry":{"coordinates":[5.311507211195618,52.059097086170254],"type":"Point"}},{"type":"Feature","properties":{},"geometry":{"coordinates":[5.311212916577944,52.06054472960096],"type":"Point"}}]}