{"type":"FeatureCollection","features":[{"type":"Feature","properties":{},"geometry":{"coordinates":[[[5.308556113008876,52.061262103120555],[5.308385248820315,52.06112790916916],[5.308127743869534,52.06043305795052],[5.307441079230443,52.059782177236826],[5.307398161739144,52.05920165187746],[5.307627059691839,52.058524844590096],[5.308213596679195,52.057609836646805],[5.308857359055793,52.05724919060637],[5.309844461367874,52.05700289407619],[5.311217822227121,52.05740752211341],[5.311961725418087,52.057750574515836],[5.312777157802287,52.05818158510948],[5.313615038377179,52.05885698363272],[5.314201577435739,52.05942871762463],[5.314602140692301,52.05953426771467],[5.3150599272719035,52.05963981755525],[5.315145763486129,52.05997405687876],[5.3150885401630035,52.060519389667945],[5.314563658553794,52.06095673401535],[5.313991425330073,52.06149325936369],[5.3134621095975945,52.061801098866795],[5.312832653050748,52.06194182479024],[5.3117597157560965,52.06190664335088],[5.31078691927479,52.061765917316535],[5.309887625046343,52.06158242668664],[5.309209799752409,52.0613207994341],[5.308960536181303,52.06146024315839],[5.308556113008876,52.061262103120555]]],"type":"Polygon"}}]}