{"type":"FeatureCollection","features":[{"type":"Feature","properties":{"@circle":{"type":"Mercator","center":[5.3111673,52.0594222]}},"geometry":{"type":"Polygon","coordinates":[[[5.315211,52.059422],[5.315203,52.059578],[5.315179,52.059734],[5.31514,52.059888],[5.315084,52.060041],[5.315013,52.060191],[5.314927,52.060337],[5.314826,52.060481],[5.314711,52.06062],[5.314582,52.060754],[5.314439,52.060884],[5.314283,52.061007],[5.314115,52.061124],[5.313936,52.061235],[5.313745,52.061338],[5.313544,52.061434],[5.313334,52.061521],[5.313115,52.061601],[5.312889,52.061672],[5.312656,52.061734],[5.312417,52.061787],[5.312173,52.06183],[5.311925,52.061864],[5.311674,52.061889],[5.311421,52.061904],[5.311167,52.061908],[5.310913,52.061904],[5.31066,52.061889],[5.31041,52.061864],[5.310162,52.06183],[5.309918,52.061787],[5.309679,52.061734],[5.309446,52.061672],[5.309219,52.061601],[5.309,52.061521],[5.30879,52.061434],[5.30859,52.061338],[5.308399,52.061235],[5.308219,52.061124],[5.308051,52.061007],[5.307896,52.060884],[5.307753,52.060754],[5.307624,52.06062],[5.307508,52.060481],[5.307407,52.060337],[5.307321,52.060191],[5.30725,52.060041],[5.307195,52.059888],[5.307155,52.059734],[5.307131,52.059578],[5.307123,52.059422],[5.307131,52.059266],[5.307155,52.059111],[5.307195,52.058956],[5.30725,52.058804],[5.307321,52.058654],[5.307407,52.058507],[5.307508,52.058364],[5.307624,52.058224],[5.307753,52.05809],[5.307896,52.057961],[5.308051,52.057837],[5.308219,52.05772],[5.308399,52.05761],[5.30859,52.057506],[5.30879,52.057411],[5.309,52.057323],[5.309219,52.057243],[5.309446,52.057172],[5.309679,52.05711],[5.309918,52.057057],[5.310162,52.057014],[5.31041,52.05698],[5.31066,52.056955],[5.310913,52.056941],[5.311167,52.056936],[5.311421,52.056941],[5.311674,52.056955],[5.311925,52.05698],[5.312173,52.057014],[5.312417,52.057057],[5.312656,52.05711],[5.312889,52.057172],[5.313115,52.057243],[5.313334,52.057323],[5.313544,52.057411],[5.313745,52.057506],[5.313936,52.05761],[5.314115,52.05772],[5.314283,52.057837],[5.314439,52.057961],[5.314582,52.05809],[5.314711,52.058224],[5.314826,52.058364],[5.314927,52.058507],[5.315013,52.058654],[5.315084,52.058804],[5.31514,52.058956],[5.315179,52.059111],[5.315211,52.059422]]]}}]}